KAITUO 1B               
1 40912U 15049P   17303.43583902  .00002636  00000-0  13209-3 0  9998
2 40912  97.4522 309.1240 0017406  90.5919  15.5063 15.18110398116800
TIANWANG 1C (TW-1C)     
1 40926U 15051B   17303.48031903  .00014215  00000-0  29997-3 0  9997
2 40926  97.2163 342.0815 0012518  46.0312  61.4099 15.45232996117797
TIANWANG 1B (TW-1B)     
1 40927U 15051C   17303.83929622  .00013015  00000-0  28571-3 0  9995
2 40927  97.2247 342.3931 0012335  56.2531  29.4564 15.44087780117784
TIANWANG 1A (TW-1A)     
1 40928U 15051D   17303.47821273  .00006394  00000-0  17678-3 0  9997
2 40928  97.2143 336.8494 0014260  72.3496  35.4079 15.37267694117470
LAPAN-A2 (IO-86)        
1 40931U 15052B   17303.53992576  .00000748  00000-0  15126-4 0  9998
2 40931   6.0017 347.6187 0013838 358.6811   1.3420 14.76551662113002
LQSAT                   
1 40958U 15057A   17303.49778781  .00000087  00000-0  21266-4 0  9995
2 40958  97.9665  16.3719 0018381 357.6858   2.4264 14.72996564111037
CHUBUSAT-2              
1 41338U 16012B   17303.45705079  .00000577  00000-0  38615-4 0  9996
2 41338  31.0043 333.0935 0013924 318.5426  41.4152 14.99851542 93317
CHUBUSAT-3              
1 41339U 16012C   17303.50014305  .00000694  00000-0  47556-4 0  9992
2 41339  31.0102 331.7524 0013745 324.6818  35.2920 15.00049641 93302
OUFTI-1                 
1 41458U 16025C   17303.48420299  .00004140  00000-0  22137-3 0  9995
2 41458  98.1675 348.7611 0172082 197.0389 162.5013 15.03820277 82909
E-ST@R-II               
1 41459U 16025D   17303.38796758  .00003102  00000-0  16756-3 0  9998
2 41459  98.1729 348.5851 0172936 197.4065 162.1141 15.03627426 82883
AAUSAT 4                
1 41460U 16025E   17303.43006079  .00003836  00000-0  20555-3 0  9992
2 41460  98.1623 348.8276 0164680 194.9900 164.6399 15.04730956 82920
NUSAT 1 (LO-87)         
1 41557U 16033B   17303.30834380  .00002295  00000-0  87655-4 0  9991
2 41557  97.4549  22.8015 0012574 247.5169 112.4739 15.27614744 79052
BEESAT-4                
1 41619U 16040W   17303.12311467  .00002394  00000-0  10986-3 0  9996
2 41619  97.4476   4.1366 0010710 322.6298  37.4192 15.21349736 63108
PRATHAM                 
1 41783U 16059A   17303.11469344  .00000101  00000-0  28959-4 0  9999
2 41783  98.1516   2.9815 0034933  97.6647 262.8524 14.62873301 58323
ALSAT 1N                
1 41789U 16059G   17303.46970879  .00000177  00000-0  42784-4 0  9998
2 41789  98.1523   4.0972 0029874  89.6672 270.7953 14.64093710 58404
NAYIF-1 (EO-88)         
1 42017U 17008BX  17303.56190664  .00002387  00000-0  10263-3 0  9996
2 42017  97.4805   4.6874 0008199 104.6398 255.5748 15.23615877 39098
LILACSAT-1              
1 42725U 98067ME  17303.58964961  .00024202  00000-0  30205-3 0  9995
2 42725  51.6382  80.4149 0005218  94.7472 265.4117 15.59719819 24593
MAX VALIER SAT          
1 42778U 17036P   17303.58726643  .00001683  00000-0  79445-4 0  9991
2 42778  97.4370   1.7500 0013821 147.8458 212.3623 15.20753120 19606
